1 35934U 09051D   12142.32852122  .00003351  00000-0  81574-3 0  9994
2 35934 098.3321 245.4150 0006625 193.3293 166.7494 14.53398239141013
1 35934U 09051D   12142.74159391 +.00003351 +00000-0 +81574-3 0  9998
2 35934 098.3325 245.8261 0006590 191.7447 168.3582 14.53400908141077
1 35934U 09051D   12142.81043881  .00003351  00000-0  81574-3 0  9992
2 35934 098.3324 245.8957 0006025 198.4578 161.6091 14.53398616141084
1 35934U 09051D   12143.77427285  .00003351  00000-0  81574-3 0  9992
2 35934 098.3339 246.8547 0006724 189.4193 170.6656 14.53400484141225
1 35934U 09051D   12144.32504320  .00003351  00000-0  81574-3 0  9990
2 35934 098.3337 247.4020 0007062 184.6682 175.4415 14.53398449141304
1 35934U 09051D   12144.73811202 +.00003351 +00000-0 +81574-3 0  9995
2 35934 098.3341 247.8131 0007051 183.3787 176.7367 14.53401287141367
1 35934U 09051D   12145.77078436  .00003351  00000-0  81574-3 0  9994
2 35934 098.3353 248.8407 0006003 179.7996 180.2905 14.53403347141518
1 35934U 09051D   12146.32154579  .00003351  00000-0  81574-3 0  9999
2 35934 098.3336 249.3876 0006672 182.3549 177.7169 14.53401175141599
1 35934U 09051D   12146.73462173 +.00003352 +00000-0 +81574-3 0  9997
2 35934 098.3339 249.7986 0006728 180.9266 179.1919 14.53403940141658
1 35934U 09051D   12147.76729182  .00003352  00000-0  81574-3 0  9997
2 35934 098.3346 250.8267 0007249 178.8027 181.3027 14.53406807141808
1 35934U 09051D   12148.31805548  .00003352  00000-0  81574-3 0  9990
2 35934 098.3330 251.3740 0007018 174.2419 185.8574 14.53404999141886
1 35934U 09051D   12148.73112723 +.00003352 +00000-0 +81574-3 0  9992
2 35934 098.3327 251.7844 0007009 172.7685 187.3605 14.53407737141941
1 35934U 09051D   12149.28188525  .00003352  00000-0  81574-3 0  9996
2 35934 098.3341 252.3332 0006741 175.1462 184.9572 14.53406408142028
1 35934U 09051D   12149.76379975 +.00003352 +00000-0 +81574-3 0  9990
2 35934 098.3346 252.8130 0006945 172.5614 187.5627 14.53408929142097
1 35934U 09051D   12150.24571526  .00003352  00000-0  81574-3 0  9991
2 35934 098.3325 253.2917 0007394 171.9486 188.1600 14.53407017142164
1 35934U 09051D   12150.79647381  .00003352  00000-0  81574-3 0  9994
2 35934 098.3344 253.8408 0006355 169.6580 190.4435 14.53407925142240
1 35934U 09051D   12151.76030277  .00003352  00000-0  81574-3 0  9992
2 35934 098.3337 254.7986 0006536 170.1380 189.9721 14.53409324142380
1 35934U 09051D   12152.72415200  .00000500  00000-0  12015-3 0  9998
2 35934 098.3338 255.7565 0006920 163.5516 196.6391 14.53396593142526
1 35934U 09051D   12152.79297651 +.00003352 +00000-0 +81574-3 0  9997
2 35934 098.3347 255.8274 0006548 160.8802 199.2400 14.53410417142531
1 35934U 09051D   12153.20604584  .00003352  00000-0  81574-3 0  9991
2 35934 098.3336 256.2372 0006490 159.7626 200.3757 14.53412689142598
1 35934U 09051D   12153.75680037 +.00003352 +00000-0 +81574-3 0  9998
2 35934 098.3351 256.7851 0007247 160.3198 199.8101 14.53413109142677
1 35934U 09051D   12153.82564783  .00003352  00000-0  81574-3 0  9995
2 35934 098.3341 256.8526 0006137 159.0312 201.0794 14.53410622142688
1 35934U 09051D   12154.72063230 +.00003352 +00000-0 +81574-3 0  9996
2 35934 098.3334 257.7431 0006911 157.5491 202.5927 14.53413091142818
1 35934U 09051D   12154.78947793  .00003352  00000-0  81574-3 0  9997
2 35934 098.3343 257.8130 0006459 154.0256 206.1048 14.53411685142825
1 35934U 09051D   12155.34024040  .00003352  00000-0  81574-3 0  9991
2 35934 098.3343 258.3607 0006460 152.3366 207.8140 14.53411812142907
1 35934U 09051D   12155.75330536 +.00003352 +00000-0 +81574-3 0  9996
2 35934 098.3354 258.7718 0006859 153.7741 206.3691 14.53412559142960
1 35934U 09051D   12156.30406406  .00003352  00000-0  81574-3 0  9998
2 35934 098.3354 259.3195 0006860 152.0850 208.0627 14.53413078143046
1 35934U 09051D   12156.71712970 +.00003353 +00000-0 +81574-3 0  9990
2 35934 098.3350 259.7302 0007369 152.9180 207.2398 14.53415661143109
1 35934U 09051D   12157.26788415  .00003352  00000-0  81574-3 0  9997
2 35934 098.3359 260.2778 0007365 152.5925 207.5414 14.53414048143189
1 35934U 09051D   12157.74979644 +.00003352 +00000-0 +81574-3 0  9996
2 35934 098.3368 260.7578 0006546 149.2335 210.8916 14.53414137143251
1 35934U 09051D   12158.30055740  .00003353  00000-0  81574-3 0  9992
2 35934 098.3356 261.3051 0007299 150.3312 209.8258 14.53415216143330
1 35934U 09051D   12158.71362155 +.00003353 +00000-0 +81574-3 0  9998
2 35934 098.3356 261.7160 0007299 149.0642 211.0896 14.53417303143394
1 35934U 09051D   12159.33322084  .00003353  00000-0  81574-3 0  9994
2 35934 098.3368 262.3327 0008036 146.5604 213.5831 14.53416634143481
1 35934U 09051D   12159.74628896 +.00003353 +00000-0 +81574-3 0  9999
2 35934 098.3356 262.7440 0006948 141.8584 218.2837 14.53417106143543
1 35934U 09051D   12160.71011226 +.00003353 +00000-0 +81574-3 0  9991
2 35934 098.3357 263.7027 0007574 139.8296 220.3467 14.53420694143683
1 35934U 09051D   12161.74277630 +.00003353 +00000-0 +81574-3 0  9998
2 35934 098.3357 264.7303 0007949 138.4172 221.7599 14.53421261143834
1 35934U 09051D   12162.29352830  .00003353  00000-0  81574-3 0  9995
2 35934 098.3367 265.2787 0007471 137.1357 223.0147 14.53420733143914
1 35934U 09051D   12162.77543883 +.00003353 +00000-0 +81574-3 0  9998
2 35934 098.3355 265.7587 0007841 133.9027 226.2647 14.53422234143988
1 35934U 09051D   12163.73925954 +.00003353 +00000-0 +81574-3 0  9998
2 35934 098.3355 266.7165 0007255 131.1213 229.0422 14.53422663144122
1 35934U 09051D   12164.29001233  .00003353  00000-0  81574-3 0  9995
2 35934 098.3352 267.2638 0007331 132.3509 227.8085 14.53423236144203
1 35934U 09051D   12164.77192104 +.00003353 +00000-0 +81574-3 0  9996
2 35934 098.3356 267.7443 0006767 123.3139 236.8417 14.53423967144274
1 35934U 09051D   12164.84077008  .00003353  00000-0  81574-3 0  9999
2 35934 098.3351 267.8121 0006770 123.2274 236.9560 14.53424332144284
1 35934U 09051D   12165.73573919  .00003353  00000-0  81574-3 0  9990
2 35934 098.3352 268.7038 0006952 122.9731 237.1892 14.53424805144419
1 35934U 09051D   12166.76839712  .00003353  00000-0  81574-3 0  9990
2 35934 098.3345 269.7303 0007187 118.8076 241.3462 14.53426389144569
1 35934U 09051D   12167.73221789 +.00003354 +00000-0 +81574-3 0  9998
2 35934 098.3350 270.6894 0007788 117.0121 243.1871 14.53428970144708
1 35934U 09051D   12167.80106116  .00003354  00000-0  81574-3 0  9992
2 35934 098.3369 270.7594 0007897 118.0150 242.1844 14.53429304144712
1 35934U 09051D   12168.28296353  .00003354  00000-0  81574-3 0  9998
2 35934 098.3356 271.2375 0007944 121.5541 238.6085 14.53428512144781
1 35934U 09051D   12168.76487277 +.00003354 +00000-0 +81574-3 0  9998
2 35934 098.3356 271.7167 0007674 119.9827 240.1903 14.53429589144853
1 35934U 09051D   12169.31562249  .00003354  00000-0  81574-3 0  9993
2 35934 098.3356 272.2645 0007674 118.2922 241.8672 14.53429185144930
1 35934U 09051D   12169.79753209  .00003354  00000-0  81574-3 0  9993
2 35934 098.3360 272.7449 0007329 111.3539 248.8119 14.53429572145009
1 35934U 09051D   12170.76134270  .00003354  00000-0  81574-3 0  9993
2 35934 098.3364 273.7041 0007663 111.5727 248.5993 14.53431954145143
1 35934U 09051D   12171.72515800  .00003354  00000-0  81574-3 0  9992
2 35934 098.3358 274.6620 0007445 112.5194 247.6638 14.53433338145285
1 35934U 09051D   12172.27591040  .00003354  00000-0  81574-3 0  9993
2 35934 098.3362 275.2099 0007937 112.3745 247.8170 14.53432434145361
1 35934U 09051D   12172.75781401 +.00003354 +00000-0 +81574-3 0  9998
2 35934 098.3369 275.6894 0007488 108.2517 251.9282 14.53433729145433
1 35934U 09051D   12172.82666112  .00003354  00000-0  81574-3 0  9997
2 35934 098.3371 275.7578 0007405 102.5533 257.6324 14.53432785145442
1 35934U 09051D   12173.72162697 +.00003354 +00000-0 +81574-3 0  9996
2 35934 098.3361 276.6481 0008219 109.7869 250.4185 14.53436127145573
1 35934U 09051D   12173.79047044  .00003354  00000-0  81574-3 0  9991
2 35934 098.3372 276.7180 0007624 099.6461 260.5301 14.53433929145586
1 35934U 09051D   12174.75427942  .00003354  00000-0  81574-3 0  9997
2 35934 098.3369 277.6771 0007551 102.3007 257.8693 14.53434194145729
1 35934U 09051D   12175.78693611  .00003354  00000-0  81574-3 0  9999
2 35934 098.3371 278.7049 0007704 097.8041 262.3764 14.53435186145876
1 35934U 09051D   12176.33768689  .00003354  00000-0  81574-3 0  9999
2 35934 098.3372 279.2516 0007388 097.3955 262.7949 14.53435522145951
1 35934U 09051D   12176.75074672 +.00003354 +00000-0 +81574-3 0  9997
2 35934 098.3379 279.6632 0007496 092.3188 267.8592 14.53435686146013
1 35934U 09051D   12177.30149899  .00003354  00000-0  81574-3 0  9993
2 35934 098.3374 280.2114 0007739 095.0215 265.1781 14.53436201146095
1 35934U 09051D   12177.71455768 +.00003354 +00000-0 +81574-3 0  9993
2 35934 098.3371 280.6228 0007639 095.4997 264.7069 14.53438908146159
1 35934U 09051D   12178.26530415  .00003354  00000-0  81574-3 0  9997
2 35934 098.3363 281.1704 0007569 094.7908 265.3898 14.53436861146233
1 35934U 09051D   12178.74720867 +.00003354 +00000-0 +81574-3 0  9992
2 35934 098.3362 281.6506 0007577 086.5179 273.6518 14.53436909146307
1 35934U 09051D   12179.29795856  .00003354  00000-0  81574-3 0  9993
2 35934 098.3353 282.1972 0007665 089.5848 270.5994 14.53437705146381
1 35934U 09051D   12179.77986235 +.00003355 +00000-0 +81574-3 0  9990
2 35934 098.3356 282.6774 0008101 084.1522 276.0346 14.53438880146450
1 35934U 09051D   12180.33060897  .00003354  00000-0  81574-3 0  9990
2 35934 098.3350 283.2230 0007668 089.7868 270.3895 14.53438418146531
1 35934U 09051D   12180.74367139 +.00003354 +00000-0 +81574-3 0  9994
2 35934 098.3350 283.6338 0007668 088.5178 271.6741 14.53440176146599
1 35934U 09051D   12181.29441801  .00003354  00000-0  81574-3 0  9994
2 35934 098.3360 284.1846 0007689 087.3010 272.8677 14.53438239146672
